ONEWEB-0593             
1 54659U 22166T   23269.53288757  .00003085  00000+0  74352-2 0  9991
2 54659  87.9173  82.0123 0001505 143.3874 216.7363 13.21819848 40617
ONEWEB-0594             
1 54660U 22166U   23269.85459516  .00000044  00000+0  74523-4 0  9995
2 54660  87.9174  81.9415 0001955  90.5997 269.5361 13.21828359 40206
ONEWEB-0595             
1 54661U 22166V   23269.45300467  .00000028  00000+0  36980-4 0  9999
2 54661  87.9172  82.0148 0001702  78.2273 281.9052 13.21824230 40120
ONEWEB-0596             
1 54662U 22166W   23269.88193176  .00000087  00000+0  17833-3 0  9994
2 54662  87.9171  81.9300 0001283  97.3703 262.7577 13.21828950 40180
ONEWEB-0597             
1 54663U 22166X   23269.86301216  .00000039  00000+0  61777-4 0  9993
2 54663  87.9172  81.9348 0001703 104.0125 256.1198 13.21827513 40185
ONEWEB-0600             
1 54664U 22166Y   23269.84410255  .00000048  00000+0  83836-4 0  9996
2 54664  87.9177  81.9873 0001745  96.7263 263.4069 13.21826076 40158
ONEWEB-0601             
1 54665U 22166Z   23269.45824949  .00000078  00000+0  15793-3 0  9992
2 54665  87.9175  82.0152 0001217  94.0797 266.0476 13.21828307 40291
ONEWEB-0602             
1 54666U 22166AA  23269.87984578  .00000070  00000+0  13817-3 0  9991
2 54666  87.9171  81.9380 0001594  98.7222 261.4093 13.21826031 40196
